OBJECT_NAME,OBJECT_ID,EPOCH,MEAN_MOTION,ECCENTRICITY,INCLINATION,RA_OF_ASC_NODE,ARG_OF_PERICENTER,MEAN_ANOMALY,EPHEMERIS_TYPE,CLASSIFICATION_TYPE,NORAD_CAT_ID,ELEMENT_SET_NO,REV_AT_EPOCH,BSTAR,MEAN_MOTION_DOT,MEAN_MOTION_DDOT
COSMOS 2242,1993-024A,2024-07-07T10:05:35.274624,14.92067788,.0017254,82.5214,128.5815,187.8125,172.2829,0,U,22626,999,68923,.24202E-3,.2488E-4,0
SL-16 R/B,1993-059B,2024-07-07T11:32:37.323456,14.17038307,.00153,70.9883,217.7768,55.9803,304.2771,0,U,22803,999,59308,.15198E-3,.258E-5,0
ARIANE 40 R/B,1993-061H,2024-07-07T19:40:02.253792,14.32152133,.0009667,98.5705,257.2031,288.5970,71.4164,0,U,22830,999,60703,.14715E-3,.352E-5,0
COSMOS 2278,1994-023A,2024-07-08T04:41:28.339296,14.14103212,.0010599,71.0532,10.0542,243.6050,116.3985,0,U,23087,999,55888,.9309E-4,.13E-5,0
SL-16 R/B,1994-023B,2024-07-07T11:25:32.602656,14.14856095,.0002728,71.0003,272.2615,184.0147,176.0955,0,U,23088,999,55977,.18775E-3,.315E-5,0
SL-16 R/B,1994-074B,2024-07-07T17:14:44.246688,14.78139994,.0007798,97.7860,232.0079,53.1456,61.4349,0,U,23343,999,59730,.1012E-3,.683E-5,0
SL-16 R/B,1994-077B,2024-07-07T09:53:19.468032,14.15400670,.0003011,70.9811,196.2578,327.3244,32.7692,0,U,23405,999,52987,.17455E-3,.293E-5,0
ARIANE 40+ R/B,1995-021B,2024-07-07T10:05:15.569376,14.38901664,.0007332,98.5267,255.7527,159.7069,211.0210,0,U,23561,999,53145,.15137E-3,.422E-5,0
SL-16 R/B,1995-058B,2024-07-07T14:27:24.513120,14.15349637,.0013925,71.0219,20.9996,321.6100,38.4031,0,U,23705,999,48152,-.10639E-3,-.255E-5,0
SL-16 R/B,1996-051B,2024-07-07T06:23:43.826208,14.12468192,.0017673,70.8016,26.3556,312.2280,47.7339,0,U,24298,999,43545,-.95902E-4,-.226E-5,0
ORBVIEW 2 (SEASTAR),1997-037A,2024-07-07T08:57:04.416192,14.34583186,.0003178,98.7779,329.5803,70.6851,289.4677,0,U,24883,999,42093,.15907E-3,.403E-5,0
SL-16 R/B,1998-043G,2024-07-07T11:19:49.392480,14.25765518,.0009707,98.7452,130.4852,352.4211,7.6820,0,U,25400,999,35202,.64174E-4,.108E-5,0
SL-16 R/B,1998-045B,2024-07-07T21:48:36.920160,14.16014342,.0009419,71.0120,23.7828,243.2907,116.7253,0,U,25407,999,34104,-.21339E-4,-.9E-6,0
CZ-4B R/B,1999-025C,2024-07-07T17:42:14.288832,14.17980449,.0036224,98.7500,234.5689,297.6551,172.9385,0,U,25732,999,30185,.76409E-4,.113E-5,0
OKEAN-O,1999-039A,2024-07-07T14:07:16.448448,14.78544990,.0001723,98.0347,241.9225,109.9012,250.2385,0,U,25860,999,34417,.15264E-3,.1063E-4,0
SL-16 R/B,1999-039B,2024-07-07T13:52:29.117856,14.80163754,.0016482,98.0871,235.6959,74.9712,285.3322,0,U,25861,999,34655,.12376E-3,.887E-5,0
DELTA 2 R/B,1999-041E,2024-07-07T11:13:41.363904,14.08271387,.0516991,51.7611,213.1000,351.5258,7.7188,0,U,25876,999,27691,.37919E-3,.2065E-4,0
HELIOS 1B,1999-064A,2024-07-08T04:52:02.415936,14.84474132,.0000559,98.2421,62.5559,146.4914,213.6335,0,U,25977,999,32603,.13255E-3,.1058E-4,0
TERRA,1999-068A,2024-07-08T04:47:50.942688,14.59849531,.0000884,98.0472,253.0701,337.5174,87.7523,0,U,25994,999,30623,.14993E-3,.672E-5,0
SL-16 R/B,2000-006B,2024-07-07T11:37:15.776832,14.15647220,.001566,71.0035,300.7440,23.8021,336.3823,0,U,26070,999,26219,.18088E-3,.307E-5,0
TITAN 4B R/B,2000-047B,2024-07-07T13:48:03.454272,15.02322489,.0047889,67.9940,307.6849,358.8459,1.2568,0,U,26474,999,30102,.252E-3,.3292E-4,0
ENVISAT,2002-009A,2024-07-07T21:11:45.101760,14.38601687,.000141,98.2831,150.2537,87.9384,298.0249,0,U,27386,999,17155,.76766E-4,.193E-5,0
IDEFIX & ARIANE 42P R/B,2002-021B,2024-07-07T20:37:56.142912,14.30159072,.0011869,98.5276,127.1320,177.3415,182.7833,0,U,27422,999,15492,.17562E-3,.412E-5,0
AQUA,2002-022A,2024-07-07T22:31:55.570368,14.59450258,.0002161,98.3311,139.3885,69.7436,336.1498,0,U,27424,999,17974,.30311E-3,.139E-4,0
CZ-4B R/B,2002-024C,2024-07-07T23:05:52.706976,14.14333393,.0049492,98.9737,232.3827,313.0298,119.5482,0,U,27432,999,14312,.66167E-4,.82E-6,0
MIDORI II (ADEOS-II),2002-056A,2024-07-07T10:07:24.521376,14.28400033,.0001394,98.6923,136.0269,42.0281,318.1007,0,U,27597,999,12314,.17537E-3,.394E-5,0
H-2A R/B,2002-056E,2024-07-07T13:21:19.024416,14.32853775,.007113,98.2307,165.6173,179.6878,291.9757,0,U,27601,999,12670,.1378E-3,.346E-5,0
CZ-4B R/B,2003-049C,2024-07-08T04:15:39.525120,14.53832498,.0047942,98.6117,153.1412,292.7309,66.8823,0,U,28059,999,9797,.13904E-3,.542E-5,0
CZ-2C R/B,2004-012C,2024-07-07T13:08:13.042752,15.26770295,.0032693,97.8017,203.4315,341.8646,18.1423,0,U,28222,999,11020,.42731E-3,.11345E-3,0
SL-16 R/B,2004-021B,2024-07-07T21:14:39.650496,14.14424645,.0007373,71.0010,72.0677,253.4963,106.5349,0,U,28353,999,3660,-.94126E-4,-.228E-5,0
