TERRA                   
1 25994U 99068A   24190.19989517  .00000672  00000+0  14993-3 0  9999
2 25994  98.0472 253.0701 0000884 337.5174  87.7523 14.59849531306234
AQUA                    
1 27424U 02022A   24189.93883762  .00001390  00000+0  30311-3 0  9998
2 27424  98.3311 139.3885 0002161  69.7436 336.1498 14.59450258179743
COSMOS 2242             
1 22626U 93024A   24189.42054716  .00002488  00000+0  24202-3 0  9993
2 22626  82.5214 128.5815 0017254 187.8125 172.2829 14.92067788689234
SL-16 R/B               
1 22803U 93059B   24189.48098754  .00000258  00000+0  15198-3 0  9991
2 22803  70.9883 217.7768 0015300  55.9803 304.2771 14.17038307593082
ARIANE 40 R/B           
1 22830U 93061H   24189.81947053  .00000352  00000+0  14715-3 0  9995
2 22830  98.5705 257.2031 0009667 288.5970  71.4164 14.32152133607032
COSMOS 2278             
1 23087U 94023A   24190.19546689  .00000130  00000+0  93090-4 0  9990
2 23087  71.0532  10.0542 0010599 243.6050 116.3985 14.14103212558882
SL-16 R/B               
1 23088U 94023B   24189.47607179  .00000315  00000+0  18775-3 0  9993
2 23088  71.0003 272.2615 0002728 184.0147 176.0955 14.14856095559772
SL-16 R/B               
1 23343U 94074B   24189.71856767  .00000683  00000+0  10120-3 0  9993
2 23343  97.7860 232.0079 0007798  53.1456  61.4349 14.78139994597308
SL-16 R/B               
1 23405U 94077B   24189.41203088  .00000293  00000+0  17455-3 0  9999
2 23405  70.9811 196.2578 0003011 327.3244  32.7692 14.15400670529878
ARIANE 40+ R/B          
1 23561U 95021B   24189.42031909  .00000422  00000+0  15137-3 0  9993
2 23561  98.5267 255.7527 0007332 159.7069 211.0210 14.38901664531458
SL-16 R/B               
1 23705U 95058B   24189.60236705 -.00000255  00000+0 -10639-3 0  9992
2 23705  71.0219  20.9996 0013925 321.6100  38.4031 14.15349637481529
SL-16 R/B               
1 24298U 96051B   24189.26647947 -.00000226  00000+0 -95902-4 0  9995
2 24298  70.8016  26.3556 0017673 312.2280  47.7339 14.12468192435450
ORBVIEW 2 (SEASTAR)     
1 24883U 97037A   24189.37296778  .00000403  00000+0  15907-3 0  9995
2 24883  98.7779 329.5803 0003178  70.6851 289.4677 14.34583186420934
SL-16 R/B               
1 25400U 98043G   24189.47209945  .00000108  00000+0  64174-4 0  9993
2 25400  98.7452 130.4852 0009707 352.4211   7.6820 14.25765518352021
SL-16 R/B               
1 25407U 98045B   24189.90876065 -.00000090  00000+0 -21339-4 0  9991
2 25407  71.0120  23.7828 0009419 243.2907 116.7253 14.16014342341044
CZ-4B R/B               
1 25732U 99025C   24189.73766538  .00000113  00000+0  76409-4 0  9997
2 25732  98.7500 234.5689 0036224 297.6551 172.9385 14.17980449301858
OKEAN-O                 
1 25860U 99039A   24189.58838482  .00001063  00000+0  15264-3 0  9991
2 25860  98.0347 241.9225 0001723 109.9012 250.2385 14.78544990344179
SL-16 R/B               
1 25861U 99039B   24189.57811479  .00000887  00000+0  12376-3 0  9992
2 25861  98.0871 235.6959 0016482  74.9712 285.3322 14.80163754346554
DELTA 2 R/B             
1 25876U 99041E   24189.46783986  .00002065  00000+0  37919-3 0  9990
2 25876  51.7611 213.1000 0516991 351.5258   7.7188 14.08271387276915
HELIOS 1B               
1 25977U 99064A   24190.20280574  .00001058  00000+0  13255-3 0  9994
2 25977  98.2421  62.5559 0000559 146.4914 213.6335 14.84474132326033
SL-16 R/B               
1 26070U 00006B   24189.48421038  .00000307  00000+0  18088-3 0  9992
2 26070  71.0035 300.7440 0015660  23.8021 336.3823 14.15647220262195
TITAN 4B R/B            
1 26474U 00047B   24189.57503998  .00003292  00000+0  25200-3 0  9991
2 26474  67.9940 307.6849 0047889 358.8459   1.2568 15.02322489301029
ENVISAT                 
1 27386U 02009A   24189.88316090  .00000193  00000+0  76766-4 0  9994
2 27386  98.2831 150.2537 0001410  87.9384 298.0249 14.38601687171554
IDEFIX & ARIANE 42P R/B 
1 27422U 02021B   24189.85967758  .00000412  00000+0  17562-3 0  9991
2 27422  98.5276 127.1320 0011869 177.3415 182.7833 14.30159072154920
CZ-4B R/B               
1 27432U 02024C   24189.96241559  .00000082  00000+0  66167-4 0  9990
2 27432  98.9737 232.3827 0049492 313.0298 119.5482 14.14333393143129
MIDORI II (ADEOS-II)    
1 27597U 02056A   24189.42181159  .00000394  00000+0  17537-3 0  9999
2 27597  98.6923 136.0269 0001394  42.0281 318.1007 14.28400033123146
H-2A R/B                
1 27601U 02056E   24189.55647019  .00000346  00000+0  13780-3 0  9994
2 27601  98.2307 165.6173 0071130 179.6878 291.9757 14.32853775126705
CZ-4B R/B               
1 28059U 03049C   24190.17754080  .00000542  00000+0  13904-3 0  9998
2 28059  98.6117 153.1412 0047942 292.7309  66.8823 14.53832498 97975
CZ-2C R/B               
1 28222U 04012C   24189.54737318  .00011345  00000+0  42731-3 0  9998
2 28222  97.8017 203.4315 0032693 341.8646  18.1423 15.26770295110200
SL-16 R/B               
1 28353U 04021B   24189.88518114 -.00000228  00000+0 -94126-4 0  9997
2 28353  71.0010  72.0677 0007373 253.4963 106.5349 14.14424645 36601
